[{"OBJECT_NAME":"EDISON-1","OBJECT_ID":"2025-009B","EPOCH":"2026-03-09T19:16:13.822464","MEAN_MOTION":15.29042904,"ECCENTRICITY":0.00043285,"INCLINATION":97.4042,"RA_OF_ASC_NODE":151.6286,"ARG_OF_PERICENTER":306.4185,"MEAN_ANOMALY":53.6655,"EPHEMERIS_TYPE":0,"CLASSIFICATION_TYPE":"U","NORAD_CAT_ID":62610,"ELEMENT_SET_NO":999,"REV_AT_EPOCH":6375,"BSTAR":0.00052814963,"MEAN_MOTION_DOT":0.00014835,"MEAN_MOTION_DDOT":0},{"OBJECT_NAME":"STARLINK-34105","OBJECT_ID":"2025-099AB","EPOCH":"2026-03-09T06:47:31.155936","MEAN_MOTION":15.2760026,"ECCENTRICITY":0.00014882,"INCLINATION":43.0027,"RA_OF_ASC_NODE":175.0896,"ARG_OF_PERICENTER":301.6902,"MEAN_ANOMALY":58.3804,"EPHEMERIS_TYPE":0,"CLASSIFICATION_TYPE":"U","NORAD_CAT_ID":63977,"ELEMENT_SET_NO":999,"REV_AT_EPOCH":4722,"BSTAR":0.0013745986,"MEAN_MOTION_DOT":0.00037781,"MEAN_MOTION_DDOT":0}]
